[{"OBJECT_NAME":"FLOCK 4BE-3","OBJECT_ID":"2024-149CX","EPOCH":"2026-03-05T16:42:25.626816","MEAN_MOTION":15.38018337,"ECCENTRICITY":0.00031,"INCLINATION":97.3749,"RA_OF_ASC_NODE":147.8633,"ARG_OF_PERICENTER":297.8813,"MEAN_ANOMALY":62.2118,"EPHEMERIS_TYPE":0,"CLASSIFICATION_TYPE":"U","NORAD_CAT_ID":60561,"ELEMENT_SET_NO":999,"REV_AT_EPOCH":8641,"BSTAR":0.00058311,"MEAN_MOTION_DOT":0.00021766,"MEAN_MOTION_DDOT":0},{"OBJECT_NAME":"FLOCK 4BE-19","OBJECT_ID":"2024-149CZ","EPOCH":"2026-03-05T18:33:41.701248","MEAN_MOTION":15.40139093,"ECCENTRICITY":0.000318,"INCLINATION":97.3788,"RA_OF_ASC_NODE":149.0313,"ARG_OF_PERICENTER":303.4427,"MEAN_ANOMALY":56.6515,"EPHEMERIS_TYPE":0,"CLASSIFICATION_TYPE":"U","NORAD_CAT_ID":60563,"ELEMENT_SET_NO":999,"REV_AT_EPOCH":8648,"BSTAR":0.00065421,"MEAN_MOTION_DOT":0.00026197,"MEAN_MOTION_DDOT":0},{"OBJECT_NAME":"PELICAN-2","OBJECT_ID":"2025-009Y","EPOCH":"2026-03-05T16:45:29.675232","MEAN_MOTION":15.40324673,"ECCENTRICITY":0.000658,"INCLINATION":97.4024,"RA_OF_ASC_NODE":154.9572,"ARG_OF_PERICENTER":224.6582,"MEAN_ANOMALY":135.4135,"EPHEMERIS_TYPE":0,"CLASSIFICATION_TYPE":"U","NORAD_CAT_ID":62631,"ELEMENT_SET_NO":999,"REV_AT_EPOCH":6362,"BSTAR":0.0018878,"MEAN_MOTION_DOT":0.00076756,"MEAN_MOTION_DDOT":0},{"OBJECT_NAME":"PELICAN-3","OBJECT_ID":"2025-188A","EPOCH":"2026-03-05T17:07:05.536992","MEAN_MOTION":15.40564096,"ECCENTRICITY":0.0004158,"INCLINATION":97.2228,"RA_OF_ASC_NODE":142.3055,"ARG_OF_PERICENTER":178.3529,"MEAN_ANOMALY":181.7732,"EPHEMERIS_TYPE":0,"CLASSIFICATION_TYPE":"U","NORAD_CAT_ID":65315,"ELEMENT_SET_NO":999,"REV_AT_EPOCH":2938,"BSTAR":0.001051,"MEAN_MOTION_DOT":0.00042826,"MEAN_MOTION_DDOT":0},{"OBJECT_NAME":"PELICAN-4","OBJECT_ID":"2025-188B","EPOCH":"2026-03-05T11:15:25.409376","MEAN_MOTION":15.40622405,"ECCENTRICITY":0.0003481,"INCLINATION":97.2315,"RA_OF_ASC_NODE":142.1564,"ARG_OF_PERICENTER":108.559,"MEAN_ANOMALY":251.6035,"EPHEMERIS_TYPE":0,"CLASSIFICATION_TYPE":"U","NORAD_CAT_ID":65316,"ELEMENT_SET_NO":999,"REV_AT_EPOCH":2934,"BSTAR":0.00022531,"MEAN_MOTION_DOT":9.095e-5,"MEAN_MOTION_DDOT":0}]
